{
  "norad_id": 64375,
  "name": "STARLINK-11738 [DTC]",
  "history": [
    {
      "epoch": "2026-03-28T16:14:08.659104Z",
      "apogee_km": 358.35282358243876,
      "perigee_km": 353.5395702766018,
      "latitude_deg": -4.545708593811287e-08,
      "longitude_deg": -99.10439358058913,
      "height_km": 355.1919769990002,
      "semi_major_axis_km": 6734.0831969295195,
      "eccentricity": 0.00035738,
      "inclination_deg": 42.9989,
      "raan_deg": 330.5252,
      "arg_perigee_deg": 282.6745,
      "mean_anomaly_deg": 77.3723,
      "mean_motion_rev_day": 15.71032052
    }
  ]
}